STARLINK-1913           
1 47179U 20088BK  22227.48240570  .00002586  00000+0  19241-3 0  9991
2 47179  53.0567  37.4614 0001339  88.6398 271.4744 15.06404703 95428
STARLINK-1927           
1 47181U 20088BM  22227.52202344 -.00000108  00000+0  11668-4 0  9991
2 47181  53.0562   7.2932 0001190  95.0477 265.0648 15.06394250 95842
STARLINK-1952           
1 47349U 21005A   22226.81448632  .00136448  00000+0  61605-3 0  9991
2 47349  53.0268 342.4222 0012649 356.4543   3.6387 15.83004913 89675
STARLINK-2011           
1 47350U 21005B   22227.82612181  .00002755  00000+0  20383-3 0  9998
2 47350  53.0549 145.9199 0001605  63.9203 296.1951 15.06391480 86824
STARLINK-2017           
1 47351U 21005C   22227.78832432  .00011669  00000+0  80070-3 0  9990
2 47351  53.0534 106.0663 0001386  83.4500 276.6647 15.06411184 87376
STARLINK-2034           
1 47352U 21005D   22227.80769570  .00002760  00000+0  20417-3 0  9997
2 47352  53.0546 146.0049 0001577  69.9151 290.2007 15.06389206 86814
STARLINK-2045           
1 47353U 21005E   22227.76299900 -.00000341  00000+0 -39742-5 0  9996
2 47353  53.0552  91.2021 0001157  87.5305 272.5816 15.06395835 87585
STARLINK-2046           
1 47354U 21005F   22227.70954891  .00006526  00000+0  45652-3 0  9992
2 47354  53.0547 111.4273 0001499  74.8906 285.2249 15.06407539 87293
STARLINK-2047           
1 47355U 21005G   22227.00138052  .00001351  00000+0  10958-3 0  9991
2 47355  53.0546  99.6044 0001487  77.3137 282.8018 15.06399627 87393
STARLINK-2049           
1 47356U 21005H   22226.98110642  .00003115  00000+0  22785-3 0  9994
2 47356  53.0536 119.7079 0001481  68.9610 291.1538 15.06407381 87118
STARLINK-2050           
1 47357U 21005J   22227.18844006  .00001619  00000+0  12753-3 0  9997
2 47357  53.0554 148.7743 0001497  77.9562 282.1595 15.06401814 86726
STARLINK-2055           
1 47358U 21005K   22227.72104714  .00001524  00000+0  12122-3 0  9998
2 47358  53.0564 116.3858 0001687  69.7405 290.3765 15.06389738 87228
STARLINK-2069           
1 47359U 21005L   22227.79893974  .00002282  00000+0  17210-3 0  9994
2 47359  53.0550 141.0285 0001497  74.8766 285.2389 15.06389963 86885
STARLINK-2070           
1 47360U 21005M   22227.07556522  .00000485  00000+0  51469-4 0  9990
2 47360  53.0543 114.2908 0001568  72.7017 287.4144 15.06402248 87200
STARLINK-2071           
1 47361U 21005N   22227.66301536  .00001134  00000+0  95015-4 0  9996
2 47361  53.0546 116.6529 0001490  79.0600 281.0557 15.06394421 87213
STARLINK-2076           
1 47362U 21005P   22227.24374561  .00000515  00000+0  53441-4 0  9998
2 47362  53.0549 148.5304 0001637  75.9078 284.2093 15.06399858 86734
STARLINK-2077           
1 47363U 21005Q   22227.18107527  .00001092  00000+0  92214-4 0  9990
2 47363  53.0545 148.7938 0001659  66.9347 293.1817 15.06401260 86722
STARLINK-2081           
1 47366U 21005T   22227.80400189  .00000804  00000+0  72849-4 0  9994
2 47366  53.0545 146.0172 0001446  79.7546 280.3606 15.06394999 86817
STARLINK-2082           
1 47367U 21005U   22227.16633512 -.00000242  00000+0  26682-5 0  9994
2 47367  53.0536 148.8693 0001743  68.3343 291.7832 15.06391421 86729
STARLINK-2084           
1 47368U 21005V   22227.82244542  .00003858  00000+0  27784-3 0  9996
2 47368  53.0548 145.9222 0001454  75.9914 284.1237 15.06388995 86824
STARLINK-2085           
1 47369U 21005W   22227.76067154  .00000604  00000+0  59479-4 0  9995
2 47369  53.0540 126.1919 0001577  72.9357 287.1805 15.06389415 87097
STARLINK-2086           
1 47370U 21005X   22227.78557854  .00003793  00000+0  27345-3 0  9998
2 47370  53.0556 106.1043 0001524  66.8102 293.3047 15.06395923 87384
STARLINK-2088           
1 47371U 21005Y   22227.17370520  .00000693  00000+0  65438-4 0  9997
2 47371  53.0557 148.8509 0001675  65.6685 294.4479 15.06402327 86721
STARLINK-2089           
1 47372U 21005Z   22227.76579882 -.00000031  00000+0  16840-4 0  9995
2 47372  53.0550 141.5062 0001693  65.7446 294.3720 15.06390835 86879
STARLINK-2092           
1 47373U 21005AA  22227.76714586  .00001628  00000+0  12822-3 0  9995
2 47373  53.0549 146.1702 0001542  68.9307 291.1846 15.06390660 86818
STARLINK-2093           
1 47374U 21005AB  22227.05849551  .00003630  00000+0  26239-3 0  9991
2 47374  53.0546 149.3462 0001848  66.1862 293.9321 15.06410184 86709
STARLINK-2094           
1 47375U 21005AC  22227.79294658  .00002634  00000+0  19568-3 0  9995
2 47375  53.0538 146.0610 0001496  72.7994 287.3158 15.06397082 86816
STARLINK-2096           
1 47376U 21005AD  22227.19951350  .00000817  00000+0  73777-4 0  9993
2 47376  53.0546 148.7263 0001543  61.7350 298.3794 15.06397043 86721
STARLINK-2097           
1 47377U 21005AE  22227.78189175  .00003012  00000+0  22098-3 0  9996
2 47377  53.0526 146.1170 0001340  79.1004 281.0135 15.06399794 86816
STARLINK-2098           
1 47378U 21005AF  22227.11103896 -.00000785  00000+0 -33825-4 0  9997
2 47378  53.0557 109.1336 0001467  76.2684 283.8468 15.06404230 87278
STARLINK-2099           
1 47379U 21005AG  22227.78188891  .00002230  00000+0  16862-3 0  9995
2 47379  53.0557 106.1217 0001550  75.5495 284.5665 15.06392654 87373
STARLINK-2100           
1 47380U 21005AH  22227.81045151  .00002152  00000+0  16336-3 0  9991
2 47380  53.0541 115.9724 0001611  67.5408 292.5752 15.06398946 87244
STARLINK-2101           
1 47381U 21005AJ  22227.69389329 -.00003893  00000+0 -24250-3 0  9995
2 47381  53.0546 121.5868 0001647  68.0652 292.0512 15.06413036 87155
STARLINK-2102           
1 47382U 21005AK  22227.73673524  .00001783  00000+0  13862-3 0  9995
2 47382  53.0549 116.3213 0001432  71.3682 288.7462 15.06388396 87221
STARLINK-2103           
1 47383U 21005AL  22227.68879611 -.00000545  00000+0 -17688-4 0  9993
2 47383  53.0540 106.5352 0001446  75.6057 284.5092 15.06390067 87362
STARLINK-2104           
1 47384U 21005AM  22227.72202073 -.00000746  00000+0 -31212-4 0  9993
2 47384  53.0543 116.6183 0001807  70.6247 289.4937 15.06394399 87226
STARLINK-2105           
1 47385U 21005AN  22227.78464780  .00001410  00000+0  11353-3 0  9995
2 47385  53.0542 116.1032 0001556  66.6208 293.4945 15.06395954 87230
STARLINK-2106           
1 47386U 21005AP  22227.68144501  .00000736  00000+0  68288-4 0  9991
2 47386  53.0544 116.5657 0001732  68.6768 291.4405 15.06396316 87220
STARLINK-2108           
1 47387U 21005AQ  22227.26953683  .00000889  00000+0  78603-4 0  9996
2 47387  53.0546 148.4084 0001339  79.8105 280.3035 15.06398569 86736
STARLINK-2109           
1 47388U 21005AR  22227.01889293  .00000726  00000+0  67637-4 0  9990
2 47388  53.0542 149.5329 0001542  66.9912 293.1239 15.06397467 86695
STARLINK-2110           
1 47389U 21005AS  22227.19671857  .00000314  00000+0  39985-4 0  9993
2 47389  53.0556 128.7367 0001655  77.9105 282.2069 15.06398046 87003
STARLINK-2111           
1 47390U 21005AT  22227.78926344  .00002366  00000+0  17774-3 0  9994
2 47390  53.0543 146.0852 0001515  73.0346 287.0809 15.06390640 86817
STARLINK-2112           
1 47391U 21005AU  22227.79845544  .00001578  00000+0  12485-3 0  9996
2 47391  53.0541 116.0427 0001632  76.7737 283.3434 15.06389385 87846
STARLINK-2113           
1 47392U 21005AV  22227.66670114  .00001414  00000+0  11386-3 0  9990
2 47392  53.0546 116.6345 0001632  83.5617 276.5558 15.06393426 87213
STARLINK-2114           
1 47393U 21005AW  22227.89205879  .00001923  00000+0  14802-3 0  9999
2 47393  53.0546  90.9594 0001549  85.2746 274.8420 15.06387415 87594
STARLINK-2115           
1 47394U 21005AX  22227.82383854  .00000685  00000+0  64878-4 0  9996
2 47394  53.0553 111.0840 0001594  87.8234 272.2938 15.06394635 87927
STARLINK-2117           
1 47395U 21005AY  22227.77820258  .00001513  00000+0  12045-3 0  9994
2 47395  53.0541 106.1322 0001680  75.6770 284.4406 15.06391284 87372
STARLINK-2118           
1 47396U 21005AZ  22227.82151501  .00002576  00000+0  19178-3 0  9993
2 47396  53.0535 115.9354 0001360  91.0317 269.0827 15.06396330 87859
STARLINK-2119           
1 47397U 21005BA  22227.81875134  .00002272  00000+0  17141-3 0  9999
2 47397  53.0546 145.9369 0001441  66.3909 293.7231 15.06391581 86825
STARLINK-2120           
1 47398U 21005BB  22227.65933815  .00001352  00000+0  10970-3 0  9994
2 47398  53.0552 116.6738 0001912  70.5157 289.6038 15.06392799 87218
STARLINK-2121           
1 47399U 21005BC  22227.56260601  .00001236  00000+0  10189-3 0  9994
2 47399  53.0553 127.3389 0001671  71.7787 288.3384 15.06389598 87050
STARLINK-2122           
1 47400U 21005BD  22227.78927012  .00003830  00000+0  27589-3 0  9991
2 47400  53.0558 106.0859 0001563  76.9566 283.1598 15.06394454 87378
STARLINK-2123           
1 47401U 21005BE  22227.80678030  .00004406  00000+0  31461-3 0  9992
2 47401  53.0549 116.0124 0001697  69.2551 290.8620 15.06388612 87855
STARLINK-2124           
1 47402U 21005BF  22227.75884001 -.00002611  00000+0 -15652-3 0  9996
2 47402  53.0565 116.2159 0000729  66.0410 294.0656 15.06396724 87845
STARLINK-2127           
1 47403U 21005BG  22227.83256554  .00001073  00000+0  90954-4 0  9990
2 47403  53.0541 115.8931 0001398  75.9300 284.1844 15.06398331 87242
STARLINK-2128           
1 47404U 21005BH  22227.09906623  .00002070  00000+0  15785-3 0  9994
2 47404  53.0551 119.1838 0001541  72.3790 287.7367 15.06400011 87744
STARLINK-2130           
1 47405U 21005BJ  22227.21425633  .00002050  00000+0  15647-3 0  9991
2 47405  53.0538 148.6523 0001750  62.9049 297.2118 15.06399025 86721
STARLINK-2133           
1 47406U 21005BK  22227.77359085  .00001253  00000+0  10299-3 0  9992
2 47406  53.0529 116.1620 0001411  86.1161 273.9989 15.06393187 87841
STARLINK-2134           
1 47407U 21005BL  22227.78096444  .00002183  00000+0  16544-3 0  9993
2 47407  53.0539 116.1225 0001414  75.3427 284.7718 15.06397040 87237
STARLINK-2135           
1 47408U 21005BM  22227.68513604  .00002896  00000+0  21331-3 0  9996
2 47408  53.0544 116.5559 0001492  88.5752 271.5408 15.06391215 87228
